{"type": "FeatureCollection", "features": [ {"type": "Feature", "properties": {"norad_id": 42987, "name": "SKYSAT-C11", "group": "resource", "lat": 39.192039853895764, "lon": -40.96103757496264, "alt_km": 419.74837673886486, "timestamp": "2025-12-21T05:44:51.233372+00:00", "meta": {"OBJECT_NAME": "SKYSAT-C11", "OBJECT_ID": "2017-068A", "EPOCH": "2025-12-20T21:23:06.896256", "MEAN_MOTION": 15.4776797, "ECCENTRICITY": 0.00011672, "INCLINATION": 97.4147, "RA_OF_ASC_NODE": 132.5864, "ARG_OF_PERICENTER": 98.9952, "MEAN_ANOMALY": 261.1431, "EPHEMERIS_TYPE": 0, "CLASSIFICATION_TYPE": "U", "NORAD_CAT_ID": 42987, "ELEMENT_SET_NO": 999, "REV_AT_EPOCH": 45557, "BSTAR": 0.00031098507, "MEAN_MOTION_DOT": 0.00016039, "MEAN_MOTION_DDOT": 0}, "tle": {"line1": "1 42987U 17068A   25354.89105204  .00016039  00000+0  31099-3 0  9993", "line2": "2 42987  97.4147 132.5864 0001167  98.9952 261.1431 15.47767970455577"}}, "geometry": {"type": "Point", "coordinates": [-40.96103757496264, 39.192039853895764]}}, {"type": "Feature", "properties": {"norad_id": 42988, "name": "SKYSAT-C10", "group": "resource", "lat": 70.42031239200612, "lon": -32.370904714749926, "alt_km": 459.1163409693463, "timestamp": "2025-12-21T05:44:51.233382+00:00", "meta": {"OBJECT_NAME": "SKYSAT-C10", "OBJECT_ID": "2017-068B", "EPOCH": "2025-12-20T21:26:27.283776", "MEAN_MOTION": 15.32222185, "ECCENTRICITY": 0.00053944, "INCLINATION": 97.4266, "RA_OF_ASC_NODE": 125.7677, "ARG_OF_PERICENTER": 81.245, "MEAN_ANOMALY": 278.9403, "EPHEMERIS_TYPE": 0, "CLASSIFICATION_TYPE": "U", "NORAD_CAT_ID": 42988, "ELEMENT_SET_NO": 999, "REV_AT_EPOCH": 45504, "BSTAR": 0.0002443922, "MEAN_MOTION_DOT": 7.528e-05, "MEAN_MOTION_DDOT": 0}, "tle": {"line1": "1 42988U 17068B   25354.89337134  .00007528  00000+0  24439-3 0  9996", "line2": "2 42988  97.4266 125.7677 0005394  81.2450 278.9403 15.32222185455045"}}, "geometry": {"type": "Point", "coordinates": [-32.370904714749926, 70.42031239200612]}}, {"type": "Feature", "properties": {"norad_id": 42989, "name": "SKYSAT-C9", "group": "resource", "lat": 75.93355558268672, "lon": 94.22091586248182, "alt_km": 443.2236565915837, "timestamp": "2025-12-21T05:44:51.233393+00:00", "meta": {"OBJECT_NAME": "SKYSAT-C9", "OBJECT_ID": "2017-068C", "EPOCH": "2025-12-20T20:01:48.862848", "MEAN_MOTION": 15.36239998, "ECCENTRICITY": 0.00104568, "INCLINATION": 97.4199, "RA_OF_ASC_NODE": 125.1534, "ARG_OF_PERICENTER": 62.0931, "MEAN_ANOMALY": 298.137, "EPHEMERIS_TYPE": 0, "CLASSIFICATION_TYPE": "U", "NORAD_CAT_ID": 42989, "ELEMENT_SET_NO": 999, "REV_AT_EPOCH": 45532, "BSTAR": 0.00026171528, "MEAN_MOTION_DOT": 9.179e-05, "MEAN_MOTION_DDOT": 0}, "tle": {"line1": "1 42989U 17068C   25354.83459332  .00009179  00000+0  26172-3 0  9996", "line2": "2 42989  97.4199 125.1534 0010456  62.0931 298.1370 15.36239998455325"}}, "geometry": {"type": "Point", "coordinates": [94.22091586248182, 75.93355558268672]}}, {"type": "Feature", "properties": {"norad_id": 42990, "name": "SKYSAT-C8", "group": "resource", "lat": -46.78675937513406, "lon": 133.26094102719225, "alt_km": 472.7460259685686, "timestamp": "2025-12-21T05:44:51.233404+00:00", "meta": {"OBJECT_NAME": "SKYSAT-C8", "OBJECT_ID": "2017-068D", "EPOCH": "2025-12-20T22:07:16.068864", "MEAN_MOTION": 15.33086758, "ECCENTRICITY": 0.00010522, "INCLINATION": 97.4289, "RA_OF_ASC_NODE": 124.9584, "ARG_OF_PERICENTER": 301.2761, "MEAN_ANOMALY": 58.8378, "EPHEMERIS_TYPE": 0, "CLASSIFICATION_TYPE": "U", "NORAD_CAT_ID": 42990, "ELEMENT_SET_NO": 999, "REV_AT_EPOCH": 45496, "BSTAR": 0.00025726678, "MEAN_MOTION_DOT": 8.144e-05, "MEAN_MOTION_DDOT": 0}, "tle": {"line1": "1 42990U 17068D   25354.92171376  .00008144  00000+0  25727-3 0  9993", "line2": "2 42990  97.4289 124.9584 0001052 301.2761  58.8378 15.33086758454969"}}, "geometry": {"type": "Point", "coordinates": [133.26094102719225, -46.78675937513406]}}, {"type": "Feature", "properties": {"norad_id": 42991, "name": "SKYSAT-C7", "group": "resource", "lat": 29.612446807129423, "lon": -49.43489115867071, "alt_km": 469.43402881243674, "timestamp": "2025-12-21T05:44:51.233414+00:00", "meta": {"OBJECT_NAME": "SKYSAT-C7", "OBJECT_ID": "2017-068E", "EPOCH": "2025-12-20T21:15:36.515520", "MEAN_MOTION": 15.32485179, "ECCENTRICITY": 0.00071501, "INCLINATION": 97.4296, "RA_OF_ASC_NODE": 125.9567, "ARG_OF_PERICENTER": 31.5746, "MEAN_ANOMALY": 328.5923, "EPHEMERIS_TYPE": 0, "CLASSIFICATION_TYPE": "U", "NORAD_CAT_ID": 42991, "ELEMENT_SET_NO": 999, "REV_AT_EPOCH": 45502, "BSTAR": 0.00024119439, "MEAN_MOTION_DOT": 7.492e-05, "MEAN_MOTION_DDOT": 0}, "tle": {"line1": "1 42991U 17068E   25354.88583930  .00007492  00000+0  24119-3 0  9991", "line2": "2 42991  97.4296 125.9567 0007150  31.5746 328.5923 15.32485179455021"}}, "geometry": {"type": "Point", "coordinates": [-49.43489115867071, 29.612446807129423]}}, {"type": "Feature", "properties": {"norad_id": 42992, "name": "SKYSAT-C6", "group": "resource", "lat": -60.39961503521823, "lon": -66.54227204134854, "alt_km": 481.4790211142945, "timestamp": "2025-12-21T05:44:51.233424+00:00", "meta": {"OBJECT_NAME": "SKYSAT-C6", "OBJECT_ID": "2017-068F", "EPOCH": "2025-12-20T20:51:28.844640", "MEAN_MOTION": 15.3164256, "ECCENTRICITY": 0.00049602, "INCLINATION": 97.4327, "RA_OF_ASC_NODE": 126.3719, "ARG_OF_PERICENTER": 61.4751, "MEAN_ANOMALY": 298.6989, "EPHEMERIS_TYPE": 0, "CLASSIFICATION_TYPE": "U", "NORAD_CAT_ID": 42992, "ELEMENT_SET_NO": 999, "REV_AT_EPOCH": 45500, "BSTAR": 0.0002403833, "MEAN_MOTION_DOT": 7.269e-05, "MEAN_MOTION_DDOT": 0}, "tle": {"line1": "1 42992U 17068F   25354.86908385  .00007269  00000+0  24038-3 0  9997", "line2": "2 42992  97.4327 126.3719 0004960  61.4751 298.6989 15.31642560455000"}}, "geometry": {"type": "Point", "coordinates": [-66.54227204134854, -60.39961503521823]}}, {"type": "Feature", "properties": {"norad_id": 43111, "name": "CARTOSAT-2F", "group": "resource", "lat": -28.310524260144717, "lon": 56.77158540104292, "alt_km": 514.8810524109094, "timestamp": "2025-12-21T05:44:51.233434+00:00", "meta": {"OBJECT_NAME": "CARTOSAT-2F", "OBJECT_ID": "2018-004A", "EPOCH": "2025-12-20T21:58:08.825952", "MEAN_MOTION": 15.19192738, "ECCENTRICITY": 0.00013558, "INCLINATION": 97.431, "RA_OF_ASC_NODE": 52.4211, "ARG_OF_PERICENTER": 110.0455, "MEAN_ANOMALY": 250.0926, "EPHEMERIS_TYPE": 0, "CLASSIFICATION_TYPE": "U", "NORAD_CAT_ID": 43111, "ELEMENT_SET_NO": 999, "REV_AT_EPOCH": 44026, "BSTAR": 0.00010453933, "MEAN_MOTION_DOT": 2.132e-05, "MEAN_MOTION_DDOT": 0}, "tle": {"line1": "1 43111U 18004A   25354.91537993  .00002132  00000+0  10454-3 0  9992", "line2": "2 43111  97.4310  52.4211 0001355 110.0455 250.0926 15.19192738440267"}}, "geometry": {"type": "Point", "coordinates": [56.77158540104292, -28.310524260144717]}}, {"type": "Feature", "properties": {"norad_id": 43259, "name": "GAOFEN-1 02", "group": "resource", "lat": -48.83741497979527, "lon": -136.31943286970085, "alt_km": 646.32973424795, "timestamp": "2025-12-21T05:44:51.233444+00:00", "meta": {"OBJECT_NAME": "GAOFEN-1 02", "OBJECT_ID": "2018-031A", "EPOCH": "2025-12-20T22:12:20.024064", "MEAN_MOTION": 14.76430062, "ECCENTRICITY": 0.00023485, "INCLINATION": 98.0801, "RA_OF_ASC_NODE": 52.7177, "ARG_OF_PERICENTER": 184.8789, "MEAN_ANOMALY": 175.2398, "EPHEMERIS_TYPE": 0, "CLASSIFICATION_TYPE": "U", "NORAD_CAT_ID": 43259, "ELEMENT_SET_NO": 999, "REV_AT_EPOCH": 41639, "BSTAR": 9.3573762e-05, "MEAN_MOTION_DOT": 5.99e-06, "MEAN_MOTION_DDOT": 0}, "tle": {"line1": "1 43259U 18031A   25354.92523176  .00000599  00000+0  93574-4 0  9994", "line2": "2 43259  98.0801  52.7177 0002348 184.8789 175.2398 14.76430062416393"}}, "geometry": {"type": "Point", "coordinates": [-136.31943286970085, -48.83741497979527]}}, {"type": "Feature", "properties": {"norad_id": 43260, "name": "GAOFEN-1 03", "group": "resource", "lat": -14.71770590354904, "lon": 55.04579342026634, "alt_km": 644.797329280399, "timestamp": "2025-12-21T05:44:51.233454+00:00", "meta": {"OBJECT_NAME": "GAOFEN-1 03", "OBJECT_ID": "2018-031B", "EPOCH": "2025-12-20T23:18:31.456224", "MEAN_MOTION": 14.76452052, "ECCENTRICITY": 0.00016976, "INCLINATION": 98.0787, "RA_OF_ASC_NODE": 52.6393, "ARG_OF_PERICENTER": 278.6744, "MEAN_ANOMALY": 81.4273, "EPHEMERIS_TYPE": 0, "CLASSIFICATION_TYPE": "U", "NORAD_CAT_ID": 43260, "ELEMENT_SET_NO": 999, "REV_AT_EPOCH": 41639, "BSTAR": 9.775952e-05, "MEAN_MOTION_DOT": 6.28e-06, "MEAN_MOTION_DDOT": 0}, "tle": {"line1": "1 43260U 18031B   25354.97119741  .00000628  00000+0  97760-4 0  9994", "line2": "2 43260  98.0787  52.6393 0001697 278.6744  81.4273 14.76452052416399"}}, "geometry": {"type": "Point", "coordinates": [55.04579342026634, -14.71770590354904]}}, {"type": "Feature", "properties": {"norad_id": 43262, "name": "GAOFEN-1 04", "group": "resource", "lat": 64.07653248250878, "lon": -109.92780259737364, "alt_km": 634.1505840590253, "timestamp": "2025-12-21T05:44:51.233464+00:00", "meta": {"OBJECT_NAME": "GAOFEN-1 04", "OBJECT_ID": "2018-031D", "EPOCH": "2025-12-20T22:43:26.221728", "MEAN_MOTION": 14.76421694, "ECCENTRICITY": 7.128e-05, "INCLINATION": 98.0803, "RA_OF_ASC_NODE": 52.7857, "ARG_OF_PERICENTER": 54.1529, "MEAN_ANOMALY": 305.9747, "EPHEMERIS_TYPE": 0, "CLASSIFICATION_TYPE": "U", "NORAD_CAT_ID": 43262, "ELEMENT_SET_NO": 999, "REV_AT_EPOCH": 41638, "BSTAR": 9.2180869e-05, "MEAN_MOTION_DOT": 5.89e-06, "MEAN_MOTION_DDOT": 0}, "tle": {"line1": "1 43262U 18031D   25354.94683127  .00000589  00000+0  92181-4 0  9995", "line2": "2 43262  98.0803  52.7857 0000712  54.1529 305.9747 14.76421694416388"}}, "geometry": {"type": "Point", "coordinates": [-109.92780259737364, 64.07653248250878]}}]}